CORVUS BC1              
1 42847U 17042Y   18197.69452272  .00000097  00000-0  14902-4 0  9998
2 42847  97.5943  99.5535 0010845  96.2943 263.9511 14.91931454 54761
SILU-1 (SILKROAD 1)     
1 42903U 17021F   18198.20705634  .00020844  00000-0  15090-3 0  9999
2 42903  42.7773 146.1852 0011187 154.8730 342.1225 15.72946896 54659
MIRATA                  
1 43015U 17073C   18197.80626191  .00000550  00000-0  48814-4 0  9999
2 43015  97.7041 127.5838 0257962 174.7732 185.6270 14.78182252 35512
MAKERSAT 0              
1 43016U 17073D   18198.06176930  .00000326  00000-0  31066-4 0  9992
2 43016  97.7070 127.9562 0259416 174.0077 186.4345 14.78181131 35544
ASTERIA                 
1 43020U 98067NH  18198.19563869  .00007306  00000-0  95115-4 0  9994
2 43020  51.6398 223.5250 0002007 301.8655  58.2143 15.59915331 37172
DELLINGR (RBLE)         
1 43021U 98067NJ  18198.15413633  .00005700  00000-0  81424-4 0  9998
2 43021  51.6382 225.4663 0001804 289.0153  71.0644 15.57896881 37141
OSIRIS-3U               
1 43027U 98067NL  18198.09634859  .00025999  00000-0  25512-3 0  9999
2 43027  51.6357 219.0575 0002483 304.9006  55.1756 15.65876959 37104
AEROCUBE 7B             
1 43042U 17071F   18197.66653445  .00002194  00000-0  66024-4 0  9992
2 43042  51.6384 257.8857 0005284  16.0533 344.0618 15.39028000 34147
AEROCUBE 7C             
1 43043U 17071G   18197.66646298  .00001910  00000-0  58802-4 0  9991
2 43043  51.6386 257.8899 0005361  18.1321 341.9853 15.39024764 34117
CHEFSAT                 
1 43044U 17071H   18198.17636104  .00004010  00000-0  10865-3 0  9994
2 43044  51.6386 254.5694 0005336  18.0794 342.0379 15.40039407 34207
ASGARDIA 1              
1 43049U 17071N   18198.16413358  .00002283  00000-0  67994-4 0  9998
2 43049  51.6387 255.2201 0002945  40.8662 319.2543 15.39156969 34182
ISARA                   
1 43050U 17071P   18197.59738186  .00003023  00000-0  84859-4 0  9997
2 43050  51.6381 257.4481 0002828  34.0865 326.0301 15.39847980 34102
FAUNA                   
1 43052U 17071R   18197.63058255  .00002234  00000-0  66470-4 0  9998
2 43052  51.6388 257.6665 0002836  35.8009 324.3165 15.39296022 34109
CORVUS BC3              
1 43118U 18004H   18197.91906437  .00000670  00000-0  32184-4 0  9990
2 43118  97.5313 260.5654 0010476   0.3898 359.7345 15.22296620 28237
MICROMAS-2A             
1 43131U 18004W   18198.13068658  .00001578  00000-0  70320-4 0  9996
2 43131  97.5321 260.9124 0009662   3.7372 356.3934 15.22905125 28274
GOMX4-B                 
1 43196U 18015E   18197.89446161  .00000380  00000-0  18684-4 0  9995
2 43196  97.3501 326.2176 0020376  55.4183 304.8979 15.23675377 25059
GOMX4-A                 
1 43197U 18015F   18198.03845493  .00000344  00000-0  17215-4 0  9993
2 43197  97.3510 326.3636 0020878  55.9228  33.5554 15.23688600 25085
UBAKUSAT                
1 43466U 98067NP  18198.16721031  .00009718  00000-0  14268-3 0  9990
2 43466  51.6382 228.5481 0000479  25.1649 334.9366 15.56208983 10368
1KUNS-PF                
1 43467U 98067NQ  18198.10574566  .00006103  00000-0  92929-4 0  9990
2 43467  51.6386 228.8894 0001951 248.6769 111.4014 15.55991029 10362
BATSU-CS1 (IRAZU)       
1 43468U 98067NR  18197.51925744  .00009875  00000-0  14369-3 0  9993
2 43468  51.6380 231.7211 0000595  32.0396 328.0631 15.56432159110252
